SIRION PATHFINDER-2     
1 43759U 18099B   26133.09552040  .00003308  00000+0  18446-3 0  9994
2 43759  97.4282 182.9909 0010238  67.3448 292.8866 15.14216957407313
CORVUS BC4              
1 43767U 18099K   26133.84890828  .00002733  00000+0  16177-3 0  9995
2 43767  97.4097 177.8372 0009985 116.0020 244.2240 15.12204138407210
M2 PATHFINDER           
1 45727U 20037E   26133.46436860  .00001614  00000+0  11972-3 0  9993
2 45727  97.8165 324.3080 0010079 270.3149  89.6921 15.04520999320279
NETSAT-4                
1 46504U 20068U   26133.95405609  .00012391  00000+0  28588-3 0  9997
2 46504  97.8613 139.4767 0007642  87.9049 272.3072 15.42692308310498
NETSAT-3                
1 46505U 20068V   26133.93349096  .00012505  00000+0  30052-3 0  9999
2 46505  97.8663 137.7162 0007519 100.5057 259.7036 15.41462435310403
NETSAT-1                
1 46506U 20068W   26133.95878587  .00008878  00000+0  27422-3 0  9999
2 46506  97.8748 132.4691 0006812 119.6117 240.5804 15.33779633310054
NETSAT-2                
1 46507U 20068X   26133.97276657  .00015779  00000+0  34200-3 0  9992
2 46507  97.8631 139.2762 0006218 108.8781 251.3141 15.44502126310458
GREENCUBE (IO-117)      
1 53109U 22080E   26133.47737909 -.00000003  00000+0  00000+0 0  9993
2 53109  70.1436 310.3212 0008810 297.6025  62.3740  6.42583324 89838
SITRO-AIS 5 (KATYS)     
1 57176U 23091L   26133.90854662  .00007739  00000+0  28015-3 0  9990
2 57176  97.5083 197.5006 0010817 216.1660 143.8849 15.28638372159105
SITRO-AIS 6 (CHIRKIN)   
1 57192U 23091AC  26133.94129265  .00003869  00000+0  15660-3 0  9998
2 57192  97.5090 196.8302 0010957 219.6968 140.3469 15.25257607159066
SITRO-AIS 8 (ANOKHIN)   
1 57193U 23091AD  26133.91846790  .00008833  00000+0  29549-3 0  9992
2 57193  97.5079 198.9643 0010122 211.2659 148.7982 15.31173097159209
SITRO-AIS 7 (FARTUSHNIY)
1 57194U 23091AE  26133.93762382  .00003678  00000+0  15035-3 0  9996
2 57194  97.5087 196.6688 0010772 220.8447 139.1984 15.24963133159054
SITRO-AIS 10 (BURDAEV)  
1 57199U 23091AK  26133.89462456  .00012822  00000+0  35303-3 0  9996
2 57199  97.5101 203.6517 0007138 182.9739 177.1464 15.37271775159491
SITRO-AIS 9 (SHCHUKIN)  
1 57201U 23091AM  26133.91059685  .00012838  00000+0  35860-3 0  9994
2 57201  97.5099 203.4238 0007339 183.7148 176.4043 15.36820050159484
SITRO-AIS 12 (SMIRENNIY)
1 57204U 23091AQ  26133.90762013  .00012858  00000+0  35592-3 0  9996
2 57204  97.5111 203.8667 0007143 177.6581 182.4698 15.37104780159500
SITRO-AIS 11 (SHEFFER)  
1 57208U 23091AU  26133.93014026  .00013587  00000+0  37122-3 0  9998
2 57208  97.5110 204.1154 0007082 177.3328 182.7955 15.37496985159528
SITRO-AIS 25            
1 59066U 24039R   26133.93602546  .00002922  00000+0  22796-3 0  9997
2 59066  95.3921 211.5597 0147439  87.9748 273.8354 14.93265992119618
SITRO-AIS 26            
1 59067U 24039S   26133.93278922  .00002877  00000+0  22550-3 0  9992
2 59067  95.3922 211.4620 0147769  88.5114 273.3033 14.93069010119607
SITRO-AIS 27            
1 59068U 24039T   26133.97955690  .00003123  00000+0  24239-3 0  9992
2 59068  95.3925 211.7499 0146948  87.0510 274.7521 14.93481751119630
SITRO-AIS 28            
1 59071U 24039U   26133.95778916  .00003486  00000+0  27014-3 0  9994
2 59071  95.3925 211.7803 0146803  87.0071 274.7943 14.93515223119635
GRBBETA                 
1 60237U 24128C   26133.90430372  .00002765  00000+0  19753-3 0  9995
2 60237  61.9905 336.5219 0045211 127.6054 232.9156 15.06346662101107
OOV-CUBE (TUBSAT-30)    
1 60240U 24128F   26133.91886697  .00001464  00000+0  12264-3 0  9990
2 60240  61.9949 345.0496 0048837 126.3105 234.2511 15.02592153100968
ROBUSTA-3A (MEDITERRAN*)
1 60243U 24128J   26133.73200934  .00005000  00000+0  30284-3 0  9999
2 60243  61.9869 330.0390 0045921 121.4004 239.1595 15.11114203101215
LASARSAT                
1 62391U 24247Q   26133.32516526  .00019182  00000+0  41582-3 0  9998
2 62391  44.9736  97.7722 0004763 121.9276 238.2076 15.44166921 77920
CROCUBE                 
1 62394U 24247T   26133.94365514  .00027024  00000+0  55089-3 0  9999
2 62394  44.9715  92.1524 0004487 130.7673 229.3607 15.45786748 78042
FORESAIL-1 PRIME        
1 66778U 25276DS  26133.79690400  .00003018  00000+0  15012-3 0  9999
2 66778  97.4210 207.7041 0001870 184.8187 175.3030 15.18372899 25181
KNACKSAT-2              
1 67683U 98067XZ  26133.14399935  .00027142  00000+0  37475-3 0  9992
2 67683  51.6273 110.3103 0012515  69.1546 291.0785 15.56883677 14812
